      2.10          N: GNSS NAV DATA                        RINEX VERSION / TYPE
fic2rin                                 09/29/2024 00:59:02 PGM / RUN BY / DATE
                                                            END OF HEADER
10 24  9 28  2  0  0.0 -.139661133289D-03 -.127329258248D-10  .000000000000D+00
     .410000000000D+02  .143125000000D+02  .401052419729D-08  .256069711927D+01
     .627711415291D-06  .970120821148D-02  .285729765892D-05  .515368438721D+04
     .525600000000D+06 -.298023223877D-07  .938860315072D+00 -.115483999252D-06
     .985721456421D+00  .337531250000D+03 -.237686217111D+01 -.796818904991D-08
     .148934775160D-09  .100000000000D+01  .233300000000D+04  .000000000000D+00
     .240000000000D+01  .000000000000D+00  .232830643654D-08  .410000000000D+02
     .518400000000D+06  .400000000000D+01
6  24  9 28  2  0  0.0  .638421624899D-06 -.267164068646D-10  .000000000000D+00
     .550000000000D+02  .730937500000D+02  .371051170056D-08 -.131320944184D+01
     .385195016861D-05  .307731388602D-02  .831484794617D-05  .515370292091D+04
     .525600000000D+06  .372529029846D-08 -.940704074615D-01  .596046447754D-07
     .989853686511D+00  .235968750000D+03 -.764299827196D+00 -.770246369567D-08
     .585738684082D-10  .100000000000D+01  .233300000000D+04  .000000000000D+00
     .240000000000D+01  .000000000000D+00  .372529029846D-08  .550000000000D+02
     .518400000000D+06  .400000000000D+01
22 24  9 28  2  0  0.0 -.660358928144D-04 -.352429196937D-11  .000000000000D+00
     .640000000000D+02  .141875000000D+02  .505163899247D-08  .107547269627D+01
     .528991222382D-06  .140590859810D-01  .537373125553D-05  .515368141747D+04
     .525600000000D+06  .670552253723D-07 -.211523416952D+01 -.322237610817D-06
     .960275370112D+00  .276687500000D+03 -.111118194727D+01 -.831106047474D-08
     .282154610015D-10  .100000000000D+01  .233300000000D+04  .000000000000D+00
     .240000000000D+01  .000000000000D+00 -.111758708954D-07  .640000000000D+02
     .518400000000D+06  .400000000000D+01
29 24  9 28  2  0  0.0 -.575017184019D-03  .250111042988D-11  .000000000000D+00
     .620000000000D+02  .218750000000D+01  .433589489314D-08  .503564983914D+00
    -.109896063805D-06  .291708123405D-02  .902451574802D-05  .515376578140D+04
     .525600000000D+06  .186264514923D-08 -.108191947927D+01 -.558793544769D-07
     .969303453048D+00  .207843750000D+03  .267629347535D+01 -.789282876800D-08
    -.576809740727D-09  .100000000000D+01  .233300000000D+04  .000000000000D+00
     .240000000000D+01  .000000000000D+00 -.977888703346D-08  .620000000000D+02
     .518400000000D+06  .400000000000D+01
16 24  9 28  2  0  0.0 -.169414095581D-03  .101181285572D-10  .000000000000D+00
     .670000000000D+02  .209375000000D+02  .509842665565D-08  .155955285485D+01
     .110827386379D-05  .139794389252D-01  .571087002754D-05  .515361981773D+04
     .525600000000D+06 -.353902578354D-06 -.211852804369D+01  .968575477600D-07
     .960933956814D+00  .274593750000D+03  .845359649834D+00 -.838570644119D-08
     .235724104569D-10  .100000000000D+01  .233300000000D+04  .000000000000D+00
     .240000000000D+01  .000000000000D+00 -.102445483208D-07  .670000000000D+02
     .518400000000D+06  .400000000000D+01
21 24  9 28  2  0  0.0  .100895762444D-03 -.795807864051D-12  .000000000000D+00
     .480000000000D+02  .497500000000D+02  .447482925174D-08  .397183022164D+00
     .219233334064D-05  .254031771328D-01  .865198671818D-05  .515365129280D+04
     .525600000000D+06  .264495611191D-06 -.202980635438D+00 -.301748514175D-06
     .961467588367D+00  .214406250000D+03 -.513837520058D+00 -.836641992354D-08
    -.129648257513D-09  .100000000000D+01  .233300000000D+04  .000000000000D+00
     .240000000000D+01  .000000000000D+00 -.102445483208D-07  .480000000000D+02
     .518400000000D+06  .400000000000D+01
14 24  9 28  2  0  0.0  .505338422954D-03  .852651282912D-11  .000000000000D+00
     .410000000000D+02  .225625000000D+02  .528879172798D-08 -.307717203924D+01
     .120326876640D-05  .490540592000D-02  .539608299732D-05  .515369117355D+04
     .525600000000D+06 -.106170773506D-06 -.218265579793D+01 -.409781932831D-07
     .944898668902D+00  .269281250000D+03 -.285394902097D+01 -.830998900154D-08
     .500020827875D-10  .100000000000D+01  .233300000000D+04  .000000000000D+00
     .240000000000D+01  .000000000000D+00 -.791624188423D-08  .410000000000D+02
     .518400000000D+06  .400000000000D+01
9  24  9 28  2  0  0.0  .375036150217D-03  .162572177942D-10  .000000000000D+00
     .116000000000D+03 -.936562500000D+02  .441125517506D-08  .110210813205D+01
    -.488199293613D-05  .313979899511D-02  .705756247044D-05  .515359285736D+04
     .525600000000D+06  .298023223877D-07  .195874926044D+01 -.521540641785D-07
     .959303622389D+00  .241593750000D+03  .198367915318D+01 -.811890961375D-08
    -.821462788651D-10  .100000000000D+01  .233300000000D+04  .000000000000D+00
     .240000000000D+01  .000000000000D+00  .465661287308D-09  .116000000000D+03
     .518400000000D+06  .400000000000D+01
8  24  9 28  2  0  0.0  .366978347301D-03  .123918653117D-10  .000000000000D+00
     .850000000000D+02 -.152500000000D+02  .495413493103D-08  .595302718759D+00
    -.601634383202D-06  .970207899809D-02  .756978988647D-05  .515368674850D+04
     .525600000000D+06  .260770320892D-07 -.119393011927D+01  .141561031342D-06
     .950990101789D+00  .224218750000D+03  .370508134408D+00 -.831356057888D-08
    -.603239413057D-09  .100000000000D+01  .233300000000D+04  .000000000000D+00
     .240000000000D+01  .000000000000D+00  .465661287308D-08  .850000000000D+02
     .518400000000D+06  .400000000000D+01
27 24  9 28  2  0  0.0 -.341227278113D-04 -.341060513165D-12  .000000000000D+00
     .123000000000D+03 -.103750000000D+02  .475019786481D-08  .645759058823D+00
    -.281259417534D-06  .126448726514D-01  .811181962490D-05  .515368221092D+04
     .525600000000D+06 -.117346644402D-06 -.116638496496D+01  .139698386192D-06
     .960037893157D+00  .222187500000D+03  .798677120542D+00 -.827284459718D-08
    -.637883713274D-09  .100000000000D+01  .233300000000D+04  .000000000000D+00
     .340000000000D+01  .000000000000D+00  .186264514923D-08  .123000000000D+03
     .518400000000D+06  .400000000000D+01
32 24  9 28  2  0  0.0 -.592796597630D-03  .397903932026D-11  .000000000000D+00
     .100000000000D+03 -.104968750000D+03  .436375319641D-08  .129164621221D+01
    -.545568764210D-05  .787228997797D-02  .701844692230D-05  .515373614883D+04
     .525600000000D+06 -.139698386192D-06  .197385875235D+01 -.745058059692D-08
     .962657860941D+00  .243187500000D+03 -.213481309268D+01 -.815783980677D-08
    -.147506144223D-09  .100000000000D+01  .233300000000D+04  .000000000000D+00
     .340000000000D+01  .000000000000D+00  .931322574615D-09  .100000000000D+03
     .518400000000D+06  .400000000000D+01
26 24  9 28  2  0  0.0  .689355656505D-04 -.886757334229D-11  .000000000000D+00
     .750000000000D+02  .341562500000D+02  .565880714060D-08  .245022256373D+01
     .176019966602D-05  .925721856765D-02  .565499067307D-05  .515369923019D+04
     .525600000000D+06 -.176951289177D-06 -.228905136335D+01 -.143423676491D-06
     .930449178337D+00  .255593750000D+03  .556793192397D+00 -.843856578585D-08
     .237509893240D-09  .100000000000D+01  .233300000000D+04  .000000000000D+00
     .240000000000D+01  .000000000000D+00  .651925802231D-08  .750000000000D+02
     .518400000000D+06  .400000000000D+01
28 24  9 28  2  0  0.0 -.426809769124D-03 -.134150468512D-10  .000000000000D+00
     .150000000000D+03 -.128437500000D+02  .442625579989D-08  .292277697154D+01
    -.862404704094D-06  .412087538280D-03  .106822699308D-04  .515372796631D+04
     .525600000000D+06  .260770320892D-07  .299958865563D+01 -.372529029846D-07
     .961865544509D+00  .176875000000D+03  .139258473918D+01 -.782282585210D-08
     .389659088008D-09  .100000000000D+01  .233300000000D+04  .000000000000D+00
     .240000000000D+01  .000000000000D+00 -.931322574615D-08  .406000000000D+03
     .518400000000D+06  .400000000000D+01
18 24  9 28  2  0  0.0 -.655645504594D-03 -.181898940355D-11  .000000000000D+00
     .102000000000D+03  .793437500000D+02  .392123476374D-08 -.139099591798D+01
     .404380261898D-05  .472917477600D-02  .885874032974D-05  .515373800850D+04
     .525600000000D+06 -.223517417908D-07 -.917538137775D-01 -.134110450745D-06
     .974713786387D+00  .217656250000D+03 -.298891063517D+01 -.776389482595D-08
     .657170230921D-10  .100000000000D+01  .233300000000D+04  .000000000000D+00
     .240000000000D+01  .000000000000D+00 -.838190317154D-08  .358000000000D+03
     .518400000000D+06  .400000000000D+01
11 24  9 28  2  0  0.0 -.739092938602D-03 -.363797880709D-11  .000000000000D+00
     .140000000000D+03  .823437500000D+02  .423731935850D-08 -.243415269829D+00
     .416301190853D-05  .173721439205D-02  .784546136856D-05  .515377907753D+04
     .525600000000D+06  .633299350739D-07 -.637712703637D-01  .204890966415D-07
     .966460412201D+00  .232031250000D+03 -.251167109762D+01 -.802640576059D-08
     .157149403046D-10  .100000000000D+01  .233300000000D+04  .000000000000D+00
     .240000000000D+01  .000000000000D+00 -.884756445885D-08  .908000000000D+03
     .518400000000D+06  .400000000000D+01
23 24  9 28  2  0  0.0  .329731032252D-03  .829913915368D-11  .000000000000D+00
     .112000000000D+03  .148750000000D+02  .410302805044D-08 -.255585343554D+01
     .799074769020D-06  .472113268916D-02  .302679836750D-05  .515360945320D+04
     .525600000000D+06 -.540167093277D-07  .909275765180D+00  .745058059692D-08
     .980869423823D+00  .332500000000D+03 -.294553691350D+01 -.807997942072D-08
     .201436962087D-09  .100000000000D+01  .233300000000D+04  .000000000000D+00
     .240000000000D+01  .000000000000D+00 -.838190317154D-08  .624000000000D+03
     .518400000000D+06  .400000000000D+01
